MOLNIYA 1-40            
1 10925U 78055A   17344.80935971 -.00000562  00000-0 -38623-2 0  9992
2 10925  62.3872 267.2201 7286749 274.1844  13.4606  2.00715857289598
